OOV-CUBE (TUBSAT-30)    
1 60240U 24128F   26062.70540566  .00004646  00000+0  35541-3 0  9998
2 60240  61.9935 233.2348 0055028 111.1965 249.5017 15.02193642 90264
ROBUSTA-3A (MEDITERRAN*)
1 60243U 24128J   26062.70469499  .00012796  00000+0  77240-3 0  9993
2 60243  61.9855 220.7953 0052350 107.3209 253.3622 15.09910931 90488
LASARSAT                
1 62391U 24247Q   26062.26325810  .00034211  00000+0  85297-3 0  9997
2 62391  44.9763 134.5154 0002946 345.2245  14.8556 15.39675938 66956
CROCUBE                 
1 62394U 24247T   26062.23286679  .00036635  00000+0  88016-3 0  9990
2 62394  44.9732 133.3651 0003095 331.4586  28.6132 15.40769984 66966
