[{"OBJECT_NAME":"OOV-CUBE (TUBSAT-30)","OBJECT_ID":"2024-128F","EPOCH":"2026-03-03T16:55:47.049024","MEAN_MOTION":15.02193642,"ECCENTRICITY":0.0055028,"INCLINATION":61.9935,"RA_OF_ASC_NODE":233.2348,"ARG_OF_PERICENTER":111.1965,"MEAN_ANOMALY":249.5017,"EPHEMERIS_TYPE":0,"CLASSIFICATION_TYPE":"U","NORAD_CAT_ID":60240,"ELEMENT_SET_NO":999,"REV_AT_EPOCH":9026,"BSTAR":0.00035541,"MEAN_MOTION_DOT":4.646e-5,"MEAN_MOTION_DDOT":0},{"OBJECT_NAME":"ROBUSTA-3A (MEDITERRANEE)","OBJECT_ID":"2024-128J","EPOCH":"2026-03-03T16:54:45.647136","MEAN_MOTION":15.09910931,"ECCENTRICITY":0.005235,"INCLINATION":61.9855,"RA_OF_ASC_NODE":220.7953,"ARG_OF_PERICENTER":107.3209,"MEAN_ANOMALY":253.3622,"EPHEMERIS_TYPE":0,"CLASSIFICATION_TYPE":"U","NORAD_CAT_ID":60243,"ELEMENT_SET_NO":999,"REV_AT_EPOCH":9048,"BSTAR":0.0007724,"MEAN_MOTION_DOT":0.00012796,"MEAN_MOTION_DDOT":0},{"OBJECT_NAME":"LASARSAT","OBJECT_ID":"2024-247Q","EPOCH":"2026-03-03T06:19:05.499840","MEAN_MOTION":15.39675938,"ECCENTRICITY":0.0002946,"INCLINATION":44.9763,"RA_OF_ASC_NODE":134.5154,"ARG_OF_PERICENTER":345.2245,"MEAN_ANOMALY":14.8556,"EPHEMERIS_TYPE":0,"CLASSIFICATION_TYPE":"U","NORAD_CAT_ID":62391,"ELEMENT_SET_NO":999,"REV_AT_EPOCH":6695,"BSTAR":0.00085297106,"MEAN_MOTION_DOT":0.00034211,"MEAN_MOTION_DDOT":0},{"OBJECT_NAME":"CROCUBE","OBJECT_ID":"2024-247T","EPOCH":"2026-03-03T05:35:19.690656","MEAN_MOTION":15.40769984,"ECCENTRICITY":0.00030956,"INCLINATION":44.9732,"RA_OF_ASC_NODE":133.3651,"ARG_OF_PERICENTER":331.4586,"MEAN_ANOMALY":28.6132,"EPHEMERIS_TYPE":0,"CLASSIFICATION_TYPE":"U","NORAD_CAT_ID":62394,"ELEMENT_SET_NO":999,"REV_AT_EPOCH":6696,"BSTAR":0.00088016415,"MEAN_MOTION_DOT":0.00036635,"MEAN_MOTION_DDOT":0}]
